{
  "type": "FeatureCollection",
  "features": [
    {
      "type": "Feature",
      "properties": {
        "norad_id": 50032,
        "name": "COSMOS 1408 DEB",
        "group": "cosmos-1408-debris",
        "lat": -61.12452602814937,
        "lon": 36.018435537044496,
        "alt_km": 441.9951152476533,
        "timestamp": "2025-12-21T07:34:34.788027+00:00",
        "meta_object_name": "COSMOS 1408 DEB",
        "meta_object_id": "1982-092RU",
        "meta_epoch": "2025-12-20T20:58:10.164000",
        "meta_mean_motion": 15.45769554,
        "meta_eccentricity": 0.00160414,
        "meta_inclination": 82.5636,
        "meta_ra_of_asc_node": 50.1722,
        "meta_arg_of_pericenter": 178.2003,
        "meta_mean_anomaly": 181.9307,
        "meta_ephemeris_type": 0,
        "meta_classification_type": "U",
        "meta_norad_cat_id": 50032,
        "meta_element_set_no": 999,
        "meta_rev_at_epoch": 22729,
        "meta_bstar": 7.8538205e-05,
        "meta_mean_motion_dot": 3.86e-05,
        "meta_mean_motion_ddot": 0,
        "tle_line1": "1 50032U 82092RU  25354.87372875  .00003860  00000+0  78538-4 0  9998",
        "tle_line2": "2 50032  82.5636  50.1722 0016041 178.2003 181.9307 15.45769554227294"
      },
      "geometry": {
        "type": "Point",
        "coordinates": [
          36.018435537044496,
          -61.12452602814937
        ]
      }
    },
    {
      "type": "Feature",
      "properties": {
        "norad_id": 50058,
        "name": "COSMOS 1408 DEB",
        "group": "cosmos-1408-debris",
        "lat": -6.577147388075485,
        "lon": 59.50627891571033,
        "alt_km": 375.7406956840605,
        "timestamp": "2025-12-21T07:34:34.788045+00:00",
        "meta_object_name": "COSMOS 1408 DEB",
        "meta_object_id": "1982-092SW",
        "meta_epoch": "2025-12-20T17:47:22.881120",
        "meta_mean_motion": 15.6455551,
        "meta_eccentricity": 0.00161893,
        "meta_inclination": 82.6127,
        "meta_ra_of_asc_node": 60.9651,
        "meta_arg_of_pericenter": 71.6171,
        "meta_mean_anomaly": 288.6847,
        "meta_ephemeris_type": 0,
        "meta_classification_type": "U",
        "meta_norad_cat_id": 50058,
        "meta_element_set_no": 999,
        "meta_rev_at_epoch": 22929,
        "meta_bstar": 0.00023339016,
        "meta_mean_motion_dot": 0.000227,
        "meta_mean_motion_ddot": 0,
        "tle_line1": "1 50058U 82092SW  25354.74123705  .00022700  00000+0  23339-3 0  9990",
        "tle_line2": "2 50058  82.6127  60.9651 0016189  71.6171 288.6847 15.64555510229295"
      },
      "geometry": {
        "type": "Point",
        "coordinates": [
          59.50627891571033,
          -6.577147388075485
        ]
      }
    },
    {
      "type": "Feature",
      "properties": {
        "norad_id": 50404,
        "name": "COSMOS 1408 DEB",
        "group": "cosmos-1408-debris",
        "lat": 4.911686209192326,
        "lon": -153.0801138852279,
        "alt_km": 635.3601495370549,
        "timestamp": "2025-12-21T07:34:34.788056+00:00",
        "meta_object_name": "COSMOS 1408 DEB",
        "meta_object_id": "1982-092ADS",
        "meta_epoch": "2025-12-20T20:27:26.540928",
        "meta_mean_motion": 15.14964314,
        "meta_eccentricity": 0.0168837,
        "meta_inclination": 82.2054,
        "meta_ra_of_asc_node": 206.7205,
        "meta_arg_of_pericenter": 171.102,
        "meta_mean_anomaly": 189.3275,
        "meta_ephemeris_type": 0,
        "meta_classification_type": "U",
        "meta_norad_cat_id": 50404,
        "meta_element_set_no": 999,
        "meta_rev_at_epoch": 21316,
        "meta_bstar": 0.0020820142,
        "meta_mean_motion_dot": 0.00056108,
        "meta_mean_motion_ddot": 0,
        "tle_line1": "1 50404U 82092ADS 25354.85239052  .00056108  00000+0  20820-2 0  9990",
        "tle_line2": "2 50404  82.2054 206.7205 0168837 171.1020 189.3275 15.14964314213169"
      },
      "geometry": {
        "type": "Point",
        "coordinates": [
          -153.0801138852279,
          4.911686209192326
        ]
      }
    },
    {
      "type": "Feature",
      "properties": {
        "norad_id": 50621,
        "name": "COSMOS 1408 DEB",
        "group": "cosmos-1408-debris",
        "lat": 39.86695898775865,
        "lon": -121.0066095371792,
        "alt_km": 374.4571406513114,
        "timestamp": "2025-12-21T07:34:34.788066+00:00",
        "meta_object_name": "COSMOS 1408 DEB",
        "meta_object_id": "1982-092ALR",
        "meta_epoch": "2025-12-20T15:33:22.898016",
        "meta_mean_motion": 15.57043156,
        "meta_eccentricity": 0.00290671,
        "meta_inclination": 82.5698,
        "meta_ra_of_asc_node": 65.946,
        "meta_arg_of_pericenter": 123.8285,
        "meta_mean_anomaly": 236.5744,
        "meta_ephemeris_type": 0,
        "meta_classification_type": "U",
        "meta_norad_cat_id": 50621,
        "meta_element_set_no": 999,
        "meta_rev_at_epoch": 22373,
        "meta_bstar": 0.00024864117,
        "meta_mean_motion_dot": 0.00018378,
        "meta_mean_motion_ddot": 0,
        "tle_line1": "1 50621U 82092ALR 25354.64818169  .00018378  00000+0  24864-3 0  9990",
        "tle_line2": "2 50621  82.5698  65.9460 0029067 123.8285 236.5744 15.57043156223732"
      },
      "geometry": {
        "type": "Point",
        "coordinates": [
          -121.0066095371792,
          39.86695898775865
        ]
      }
    }
  ]
}